{
  "links" : {
    "next" : "https://api.nasa.gov/neo/rest/v1/feed?start_date=2005-03-09&end_date=2005-03-09&detailed=true&api_key=t0TVs3DtDT2H8Oy2Zy8m2eVrNsAVKAexjcZXUckd",
    "prev" : "https://api.nasa.gov/neo/rest/v1/feed?start_date=2005-03-07&end_date=2005-03-07&detailed=true&api_key=t0TVs3DtDT2H8Oy2Zy8m2eVrNsAVKAexjcZXUckd",
    "self" : "https://api.nasa.gov/neo/rest/v1/feed?start_date=2005-03-08&end_date=2005-03-08&detailed=true&api_key=t0TVs3DtDT2H8Oy2Zy8m2eVrNsAVKAexjcZXUckd"
  },
  "element_count" : 7,
  "near_earth_objects" : {
    "2005-03-08" : [ {
      "links" : {
        "self" : "https://api.nasa.gov/neo/rest/v1/neo/2318450?api_key=t0TVs3DtDT2H8Oy2Zy8m2eVrNsAVKAexjcZXUckd"
      },
      "neo_reference_id" : "2318450",
      "name" : "318450 (2005 EJ)",
      "nasa_jpl_url" : "http://ssd.jpl.nasa.gov/sbdb.cgi?sstr=2318450",
      "absolute_magnitude_h" : 20.0,
      "estimated_diameter" : {
        "kilometers" : {
          "estimated_diameter_min" : 0.2658,
          "estimated_diameter_max" : 0.5943468684
        },
        "meters" : {
          "estimated_diameter_min" : 265.8,
          "estimated_diameter_max" : 594.3468684194
        },
        "miles" : {
          "estimated_diameter_min" : 0.1651604118,
          "estimated_diameter_max" : 0.369309908
        },
        "feet" : {
          "estimated_diameter_min" : 872.047272,
          "estimated_diameter_max" : 1949.9569797852
        }
      },
      "is_potentially_hazardous_asteroid" : false,
      "close_approach_data" : [ {
        "close_approach_date" : "2005-03-08",
        "epoch_date_close_approach" : 1110268800000,
        "relative_velocity" : {
          "kilometers_per_second" : "5.2701002717",
          "kilometers_per_hour" : "18972.360978016",
          "miles_per_hour" : "11788.6872977011"
        },
        "miss_distance" : {
          "astronomical" : "0.3238906862",
          "lunar" : "125.9934768677",
          "kilometers" : "48453356",
          "miles" : "30107520"
        },
        "orbiting_body" : "Earth"
      } ],
      "orbital_data" : {
        "orbit_id" : "38",
        "orbit_determination_date" : "2017-04-06 09:23:46",
        "orbit_uncertainty" : "0",
        "minimum_orbit_intersection" : ".324995",
        "jupiter_tisserand_invariant" : "4.618",
        "epoch_osculation" : "2458000.5",
        "eccentricity" : ".1541136973614924",
        "semi_major_axis" : "1.445105230561346",
        "inclination" : "12.45849766525308",
        "ascending_node_longitude" : "33.51753039526152",
        "orbital_period" : "634.5233907230863",
        "perihelion_distance" : "1.222394720403105",
        "perihelion_argument" : "92.12180394467032",
        "aphelion_distance" : "1.667815740719587",
        "perihelion_time" : "2457825.542712493485",
        "mean_anomaly" : "99.26288679534716",
        "mean_motion" : ".5673549710905903",
        "equinox" : "J2000"
      }
    }, {
      "links" : {
        "self" : "https://api.nasa.gov/neo/rest/v1/neo/3273458?api_key=t0TVs3DtDT2H8Oy2Zy8m2eVrNsAVKAexjcZXUckd"
      },
      "neo_reference_id" : "3273458",
      "name" : "(2005 EP1)",
      "nasa_jpl_url" : "http://ssd.jpl.nasa.gov/sbdb.cgi?sstr=3273458",
      "absolute_magnitude_h" : 23.7,
      "estimated_diameter" : {
        "kilometers" : {
          "estimated_diameter_min" : 0.0483676488,
          "estimated_diameter_max" : 0.1081533507
        },
        "meters" : {
          "estimated_diameter_min" : 48.3676488219,
          "estimated_diameter_max" : 108.1533506775
        },
        "miles" : {
          "estimated_diameter_min" : 0.0300542543,
          "estimated_diameter_max" : 0.0672033557
        },
        "feet" : {
          "estimated_diameter_min" : 158.6865169607,
          "estimated_diameter_max" : 354.8338390368
        }
      },
      "is_potentially_hazardous_asteroid" : false,
      "close_approach_data" : [ {
        "close_approach_date" : "2005-03-08",
        "epoch_date_close_approach" : 1110268800000,
        "relative_velocity" : {
          "kilometers_per_second" : "24.520175261",
          "kilometers_per_hour" : "88272.6309395431",
          "miles_per_hour" : "54849.1800412956"
        },
        "miss_distance" : {
          "astronomical" : "0.049798653",
          "lunar" : "19.3716754913",
          "kilometers" : "7449772.5",
          "miles" : "4629074"
        },
        "orbiting_body" : "Earth"
      } ],
      "orbital_data" : {
        "orbit_id" : "8",
        "orbit_determination_date" : "2017-04-06 09:11:25",
        "orbit_uncertainty" : "9",
        "minimum_orbit_intersection" : ".012426",
        "jupiter_tisserand_invariant" : "6.336",
        "epoch_osculation" : "2453433.5",
        "eccentricity" : ".7703909030797559",
        "semi_major_axis" : ".892703526990474",
        "inclination" : "16.32566133004417",
        "ascending_node_longitude" : "344.3922420638831",
        "orbital_period" : "308.0770186361781",
        "perihelion_distance" : ".2049728506497995",
        "perihelion_argument" : "328.0475635496043",
        "aphelion_distance" : "1.580434203331148",
        "perihelion_time" : "2453487.066466037528",
        "mean_anomaly" : "297.4054973042851",
        "mean_motion" : "1.168538963385451",
        "equinox" : "J2000"
      }
    }, {
      "links" : {
        "self" : "https://api.nasa.gov/neo/rest/v1/neo/3745111?api_key=t0TVs3DtDT2H8Oy2Zy8m2eVrNsAVKAexjcZXUckd"
      },
      "neo_reference_id" : "3745111",
      "name" : "(2016 EJ27)",
      "nasa_jpl_url" : "http://ssd.jpl.nasa.gov/sbdb.cgi?sstr=3745111",
      "absolute_magnitude_h" : 25.2,
      "estimated_diameter" : {
        "kilometers" : {
          "estimated_diameter_min" : 0.0242412481,
          "estimated_diameter_max" : 0.0542050786
        },
        "meters" : {
          "estimated_diameter_min" : 24.2412481101,
          "estimated_diameter_max" : 54.2050786336
        },
        "miles" : {
          "estimated_diameter_min" : 0.0150628086,
          "estimated_diameter_max" : 0.0336814639
        },
        "feet" : {
          "estimated_diameter_min" : 79.5316564495,
          "estimated_diameter_max" : 177.8381901842
        }
      },
      "is_potentially_hazardous_asteroid" : false,
      "close_approach_data" : [ {
        "close_approach_date" : "2005-03-08",
        "epoch_date_close_approach" : 1110268800000,
        "relative_velocity" : {
          "kilometers_per_second" : "24.3240043663",
          "kilometers_per_hour" : "87566.4157187617",
          "miles_per_hour" : "54410.3653670273"
        },
        "miss_distance" : {
          "astronomical" : "0.4453712305",
          "lunar" : "173.2494049072",
          "kilometers" : "66626588",
          "miles" : "41399844"
        },
        "orbiting_body" : "Earth"
      } ],
      "orbital_data" : {
        "orbit_id" : "12",
        "orbit_determination_date" : "2017-04-06 08:27:49",
        "orbit_uncertainty" : "7",
        "minimum_orbit_intersection" : ".0187938",
        "jupiter_tisserand_invariant" : "7.611",
        "epoch_osculation" : "2458000.5",
        "eccentricity" : ".4020280383031304",
        "semi_major_axis" : ".7523553048023092",
        "inclination" : "3.499893717548942",
        "ascending_node_longitude" : "337.3126098359608",
        "orbital_period" : "238.3597427915154",
        "perihelion_distance" : ".4498873775056831",
        "perihelion_argument" : "353.6509661100841",
        "aphelion_distance" : "1.054823232098935",
        "perihelion_time" : "2458027.394010885739",
        "mean_anomaly" : "319.3813795673771",
        "mean_motion" : "1.510322153329721",
        "equinox" : "J2000"
      }
    } ]
  }
}